[{"OBJECT_NAME":"STARLINK-31248","OBJECT_ID":"2024-017Q","EPOCH":"2025-09-30T04:13:56.188992","MEAN_MOTION":15.30211956,"ECCENTRICITY":0.00032907,"INCLINATION":53.1597,"RA_OF_ASC_NODE":242.4536,"ARG_OF_PERICENTER":87.96,"MEAN_ANOMALY":272.1778,"EPHEMERIS_TYPE":0,"CLASSIFICATION_TYPE":"U","NORAD_CAT_ID":58840,"ELEMENT_SET_NO":999,"REV_AT_EPOCH":9541,"BSTAR":0.00019303976,"MEAN_MOTION_DOT":5.364e-5,"MEAN_MOTION_DDOT":0},{"OBJECT_NAME":"STARLINK-31236","OBJECT_ID":"2024-017R","EPOCH":"2025-09-30T06:31:15.714624","MEAN_MOTION":15.30205767,"ECCENTRICITY":0.00014672,"INCLINATION":53.1609,"RA_OF_ASC_NODE":229.5718,"ARG_OF_PERICENTER":106.2289,"MEAN_ANOMALY":253.8873,"EPHEMERIS_TYPE":0,"CLASSIFICATION_TYPE":"U","NORAD_CAT_ID":58841,"ELEMENT_SET_NO":999,"REV_AT_EPOCH":9549,"BSTAR":0.00013604204,"MEAN_MOTION_DOT":3.673e-5,"MEAN_MOTION_DDOT":0},{"OBJECT_NAME":"STARLINK-31228","OBJECT_ID":"2024-017S","EPOCH":"2025-09-30T03:18:36.373536","MEAN_MOTION":15.30197645,"ECCENTRICITY":0.00012314,"INCLINATION":53.1609,"RA_OF_ASC_NODE":230.1628,"ARG_OF_PERICENTER":90.8541,"MEAN_ANOMALY":269.2601,"EPHEMERIS_TYPE":0,"CLASSIFICATION_TYPE":"U","NORAD_CAT_ID":58842,"ELEMENT_SET_NO":999,"REV_AT_EPOCH":9547,"BSTAR":4.8968947e-5,"MEAN_MOTION_DOT":1.091e-5,"MEAN_MOTION_DDOT":0},{"OBJECT_NAME":"STARLINK-31280","OBJECT_ID":"2024-017T","EPOCH":"2025-09-30T01:53:40.003872","MEAN_MOTION":15.30210839,"ECCENTRICITY":0.00014881,"INCLINATION":53.1601,"RA_OF_ASC_NODE":230.5023,"ARG_OF_PERICENTER":98.9643,"MEAN_ANOMALY":261.1527,"EPHEMERIS_TYPE":0,"CLASSIFICATION_TYPE":"U","NORAD_CAT_ID":58843,"ELEMENT_SET_NO":999,"REV_AT_EPOCH":9546,"BSTAR":0.00038776969,"MEAN_MOTION_DOT":0.00011146,"MEAN_MOTION_DDOT":0},{"OBJECT_NAME":"STARLINK-31269","OBJECT_ID":"2024-017U","EPOCH":"2025-09-29T12:32:19.248864","MEAN_MOTION":15.30194303,"ECCENTRICITY":0.0001271,"INCLINATION":53.1606,"RA_OF_ASC_NODE":323.0516,"ARG_OF_PERICENTER":113.4108,"MEAN_ANOMALY":246.7027,"EPHEMERIS_TYPE":0,"CLASSIFICATION_TYPE":"U","NORAD_CAT_ID":58844,"ELEMENT_SET_NO":999,"REV_AT_EPOCH":9409,"BSTAR":1.8946719e-5,"MEAN_MOTION_DOT":2.02e-6,"MEAN_MOTION_DDOT":0},{"OBJECT_NAME":"STARLINK-31264","OBJECT_ID":"2024-017V","EPOCH":"2025-09-30T02:59:54.170592","MEAN_MOTION":15.30194893,"ECCENTRICITY":8.651e-5,"INCLINATION":53.1628,"RA_OF_ASC_NODE":319.7123,"ARG_OF_PERICENTER":78.1171,"MEAN_ANOMALY":281.9927,"EPHEMERIS_TYPE":0,"CLASSIFICATION_TYPE":"U","NORAD_CAT_ID":58845,"ELEMENT_SET_NO":999,"REV_AT_EPOCH":9419,"BSTAR":4.2223431e-5,"MEAN_MOTION_DOT":8.92e-6,"MEAN_MOTION_DDOT":0},{"OBJECT_NAME":"STARLINK-31273","OBJECT_ID":"2024-017W","EPOCH":"2025-09-30T01:58:14.408544","MEAN_MOTION":15.30210974,"ECCENTRICITY":0.00015627,"INCLINATION":53.1594,"RA_OF_ASC_NODE":230.521,"ARG_OF_PERICENTER":66.9962,"MEAN_ANOMALY":293.1204,"EPHEMERIS_TYPE":0,"CLASSIFICATION_TYPE":"U","NORAD_CAT_ID":58846,"ELEMENT_SET_NO":999,"REV_AT_EPOCH":9546,"BSTAR":0.00039246473,"MEAN_MOTION_DOT":0.00011286,"MEAN_MOTION_DDOT":0},{"OBJECT_NAME":"STARLINK-31262","OBJECT_ID":"2024-017X","EPOCH":"2025-09-29T09:55:59.215584","MEAN_MOTION":15.30168424,"ECCENTRICITY":0.00014558,"INCLINATION":53.1614,"RA_OF_ASC_NODE":323.0927,"ARG_OF_PERICENTER":75.6843,"MEAN_ANOMALY":284.432,"EPHEMERIS_TYPE":0,"CLASSIFICATION_TYPE":"U","NORAD_CAT_ID":58847,"ELEMENT_SET_NO":999,"REV_AT_EPOCH":9408,"BSTAR":-5.7724106e-5,"MEAN_MOTION_DOT":-2.067e-5,"MEAN_MOTION_DDOT":0},{"OBJECT_NAME":"STARLINK-31238","OBJECT_ID":"2024-019A","EPOCH":"2025-09-30T08:00:01.999872","MEAN_MOTION":15.27543064,"ECCENTRICITY":0.00014564,"INCLINATION":43.003,"RA_OF_ASC_NODE":74.2929,"ARG_OF_PERICENTER":264.4564,"MEAN_ANOMALY":344.4427,"EPHEMERIS_TYPE":0,"CLASSIFICATION_TYPE":"U","NORAD_CAT_ID":58853,"ELEMENT_SET_NO":999,"REV_AT_EPOCH":587,"BSTAR":0.0028538999,"MEAN_MOTION_DOT":0.00079027,"MEAN_MOTION_DDOT":0},{"OBJECT_NAME":"STARLINK-31158","OBJECT_ID":"2024-019B","EPOCH":"2025-09-29T18:53:09.144960","MEAN_MOTION":15.27585034,"ECCENTRICITY":0.00012866,"INCLINATION":43.0017,"RA_OF_ASC_NODE":77.6843,"ARG_OF_PERICENTER":293.7237,"MEAN_ANOMALY":66.348,"EPHEMERIS_TYPE":0,"CLASSIFICATION_TYPE":"U","NORAD_CAT_ID":58854,"ELEMENT_SET_NO":999,"REV_AT_EPOCH":9447,"BSTAR":0.00011174749,"MEAN_MOTION_DOT":2.815e-5,"MEAN_MOTION_DDOT":0},{"OBJECT_NAME":"STARLINK-31237","OBJECT_ID":"2024-019C","EPOCH":"2025-09-30T03:39:14.844096","MEAN_MOTION":15.27578004,"ECCENTRICITY":0.00010427,"INCLINATION":42.9966,"RA_OF_ASC_NODE":75.2803,"ARG_OF_PERICENTER":41.6114,"MEAN_ANOMALY":318.4816,"EPHEMERIS_TYPE":0,"CLASSIFICATION_TYPE":"U","NORAD_CAT_ID":58855,"ELEMENT_SET_NO":999,"REV_AT_EPOCH":9453,"BSTAR":2.2386785e-5,"MEAN_MOTION_DOT":3.54e-6,"MEAN_MOTION_DDOT":0},{"OBJECT_NAME":"STARLINK-31244","OBJECT_ID":"2024-019D","EPOCH":"2025-09-30T04:03:16.505856","MEAN_MOTION":15.27594043,"ECCENTRICITY":0.00022011,"INCLINATION":43.004,"RA_OF_ASC_NODE":75.3897,"ARG_OF_PERICENTER":263.5844,"MEAN_ANOMALY":96.4758,"EPHEMERIS_TYPE":0,"CLASSIFICATION_TYPE":"U","NORAD_CAT_ID":58856,"ELEMENT_SET_NO":999,"REV_AT_EPOCH":9453,"BSTAR":0.00020607472,"MEAN_MOTION_DOT":5.415e-5,"MEAN_MOTION_DDOT":0},{"OBJECT_NAME":"STARLINK-31216","OBJECT_ID":"2024-019E","EPOCH":"2025-09-30T08:00:01.999872","MEAN_MOTION":15.88099121,"ECCENTRICITY":0.00024844,"INCLINATION":42.999,"RA_OF_ASC_NODE":48.4786,"ARG_OF_PERICENTER":300.7514,"MEAN_ANOMALY":257.3177,"EPHEMERIS_TYPE":0,"CLASSIFICATION_TYPE":"U","NORAD_CAT_ID":58857,"ELEMENT_SET_NO":999,"REV_AT_EPOCH":587,"BSTAR":0.0068307895,"MEAN_MOTION_DOT":0.02259628,"MEAN_MOTION_DDOT":0},{"OBJECT_NAME":"STARLINK-31226","OBJECT_ID":"2024-019F","EPOCH":"2025-09-29T11:09:46.543392","MEAN_MOTION":15.27577548,"ECCENTRICITY":0.00015026,"INCLINATION":43.0008,"RA_OF_ASC_NODE":79.5679,"ARG_OF_PERICENTER":270.0913,"MEAN_ANOMALY":89.9767,"EPHEMERIS_TYPE":0,"CLASSIFICATION_TYPE":"U","NORAD_CAT_ID":58858,"ELEMENT_SET_NO":999,"REV_AT_EPOCH":9442,"BSTAR":2.2275037e-5,"MEAN_MOTION_DOT":3.51e-6,"MEAN_MOTION_DDOT":0},{"OBJECT_NAME":"STARLINK-31197","OBJECT_ID":"2024-019G","EPOCH":"2025-09-29T13:00:34.770240","MEAN_MOTION":15.27581318,"ECCENTRICITY":0.00015406,"INCLINATION":42.9975,"RA_OF_ASC_NODE":79.2777,"ARG_OF_PERICENTER":196.1885,"MEAN_ANOMALY":163.8918,"EPHEMERIS_TYPE":0,"CLASSIFICATION_TYPE":"U","NORAD_CAT_ID":58859,"ELEMENT_SET_NO":999,"REV_AT_EPOCH":9443,"BSTAR":3.878666e-5,"MEAN_MOTION_DOT":8.05e-6,"MEAN_MOTION_DDOT":0},{"OBJECT_NAME":"STARLINK-31213","OBJECT_ID":"2024-019H","EPOCH":"2025-09-30T04:05:07.661184","MEAN_MOTION":15.27586609,"ECCENTRICITY":0.0001085,"INCLINATION":43.0038,"RA_OF_ASC_NODE":75.3988,"ARG_OF_PERICENTER":269.4673,"MEAN_ANOMALY":90.6054,"EPHEMERIS_TYPE":0,"CLASSIFICATION_TYPE":"U","NORAD_CAT_ID":58860,"ELEMENT_SET_NO":999,"REV_AT_EPOCH":9453,"BSTAR":9.3863479e-5,"MEAN_MOTION_DOT":2.322e-5,"MEAN_MOTION_DDOT":0},{"OBJECT_NAME":"STARLINK-31199","OBJECT_ID":"2024-019J","EPOCH":"2025-09-30T03:59:34.949472","MEAN_MOTION":15.2758511,"ECCENTRICITY":0.00012974,"INCLINATION":43.002,"RA_OF_ASC_NODE":75.3695,"ARG_OF_PERICENTER":266.2003,"MEAN_ANOMALY":93.87,"EPHEMERIS_TYPE":0,"CLASSIFICATION_TYPE":"U","NORAD_CAT_ID":58861,"ELEMENT_SET_NO":999,"REV_AT_EPOCH":9453,"BSTAR":0.00011343079,"MEAN_MOTION_DOT":2.861e-5,"MEAN_MOTION_DDOT":0},{"OBJECT_NAME":"STARLINK-31200","OBJECT_ID":"2024-019K","EPOCH":"2025-09-30T04:01:25.942368","MEAN_MOTION":15.27585558,"ECCENTRICITY":0.00012741,"INCLINATION":43.001,"RA_OF_ASC_NODE":75.3788,"ARG_OF_PERICENTER":273.6104,"MEAN_ANOMALY":86.4602,"EPHEMERIS_TYPE":0,"CLASSIFICATION_TYPE":"U","NORAD_CAT_ID":58862,"ELEMENT_SET_NO":999,"REV_AT_EPOCH":9453,"BSTAR":6.7407903e-5,"MEAN_MOTION_DOT":1.594e-5,"MEAN_MOTION_DDOT":0},{"OBJECT_NAME":"STARLINK-31149","OBJECT_ID":"2024-019L","EPOCH":"2025-09-30T03:22:35.029344","MEAN_MOTION":15.27582368,"ECCENTRICITY":4.967e-5,"INCLINATION":43.0005,"RA_OF_ASC_NODE":75.1804,"ARG_OF_PERICENTER":287.5096,"MEAN_ANOMALY":72.5702,"EPHEMERIS_TYPE":0,"CLASSIFICATION_TYPE":"U","NORAD_CAT_ID":58863,"ELEMENT_SET_NO":999,"REV_AT_EPOCH":9453,"BSTAR":0.00010040896,"MEAN_MOTION_DOT":2.502e-5,"MEAN_MOTION_DDOT":0},{"OBJECT_NAME":"STARLINK-31242","OBJECT_ID":"2024-019M","EPOCH":"2025-09-30T04:10:40.670112","MEAN_MOTION":15.27592299,"ECCENTRICITY":0.00016877,"INCLINATION":43.0046,"RA_OF_ASC_NODE":75.4296,"ARG_OF_PERICENTER":274.8067,"MEAN_ANOMALY":85.2592,"EPHEMERIS_TYPE":0,"CLASSIFICATION_TYPE":"U","NORAD_CAT_ID":58864,"ELEMENT_SET_NO":999,"REV_AT_EPOCH":9453,"BSTAR":0.00012328944,"MEAN_MOTION_DOT":3.133e-5,"MEAN_MOTION_DDOT":0},{"OBJECT_NAME":"STARLINK-31223","OBJECT_ID":"2024-019N","EPOCH":"2025-09-30T04:12:32.419008","MEAN_MOTION":15.27588042,"ECCENTRICITY":0.00015076,"INCLINATION":43.0056,"RA_OF_ASC_NODE":75.4456,"ARG_OF_PERICENTER":277.4829,"MEAN_ANOMALY":82.5852,"EPHEMERIS_TYPE":0,"CLASSIFICATION_TYPE":"U","NORAD_CAT_ID":58865,"ELEMENT_SET_NO":999,"REV_AT_EPOCH":9451,"BSTAR":-1.9672664e-5,"MEAN_MOTION_DOT":-8.04e-6,"MEAN_MOTION_DDOT":0},{"OBJECT_NAME":"STARLINK-31219","OBJECT_ID":"2024-019P","EPOCH":"2025-09-30T03:37:22.806624","MEAN_MOTION":15.27586372,"ECCENTRICITY":0.00010135,"INCLINATION":42.9999,"RA_OF_ASC_NODE":75.2563,"ARG_OF_PERICENTER":273.3726,"MEAN_ANOMALY":86.701,"EPHEMERIS_TYPE":0,"CLASSIFICATION_TYPE":"U","NORAD_CAT_ID":58866,"ELEMENT_SET_NO":999,"REV_AT_EPOCH":9451,"BSTAR":0.00012265034,"MEAN_MOTION_DOT":3.115e-5,"MEAN_MOTION_DDOT":0},{"OBJECT_NAME":"STARLINK-31198","OBJECT_ID":"2024-019Q","EPOCH":"2025-09-30T03:50:19.470912","MEAN_MOTION":15.27585198,"ECCENTRICITY":0.00011045,"INCLINATION":42.9995,"RA_OF_ASC_NODE":75.302,"ARG_OF_PERICENTER":260.9947,"MEAN_ANOMALY":99.078,"EPHEMERIS_TYPE":0,"CLASSIFICATION_TYPE":"U","NORAD_CAT_ID":58867,"ELEMENT_SET_NO":999,"REV_AT_EPOCH":9451,"BSTAR":8.2082312e-5,"MEAN_MOTION_DOT":1.998e-5,"MEAN_MOTION_DDOT":0}]
